STARLINK-4622           
1 53648U 22105A   22287.25001157  .00000663  00000+0  50882-4 0  9999
2 53648  97.6557 166.8278 0002380 134.7869 209.1252 15.05158875  7122
STARLINK-4386           
1 53649U 22105B   22286.91667824 -.00105016  00000+0 -74648-2 0  9995
2 53649  97.6554 166.4608 0002728 136.4735 151.3962 15.05227665  1304
STARLINK-4380           
1 53650U 22105C   22286.91667824 -.00314208  00000+0 -22914-1 0  9990
2 53650  97.6554 166.4601 0002664 132.3833 162.6108 15.05370775  1300
STARLINK-4388           
1 53651U 22105D   22286.91667824 -.00021934  00000+0 -15400-2 0  9995
2 53651  97.6552 166.4578 0002577 137.2511 162.0572 15.05172692  1309
STARLINK-4374           
1 53652U 22105E   22286.91667824  .00000760  00000+0  57638-4 0  9999
2 53652  97.6555 166.4928 0002394 137.6795 249.9798 15.05158511  1306
STARLINK-4390           
1 53653U 22105F   22287.25001157  .00146080  00000+0  10077-1 0  9998
2 53653  97.6550 166.8239 0002150 131.4342 272.6988 15.05068921  7104
STARLINK-4420           
1 53654U 22105G   22287.25001157  .00132789  00000+0  91613-2 0  9996
2 53654  97.6544 166.8228 0002514 137.0729 290.8543 15.05135972  7101
STARLINK-4470           
1 53655U 22105H   22287.25001157  .00079064  00000+0  55009-2 0  9992
2 53655  97.6549 166.8216 0002518 137.8193 267.6400 15.05116023  7101
STARLINK-4466           
1 53656U 22105J   22286.91667824  .00000910  00000+0  68188-4 0  9992
2 53656  97.6555 166.5000 0002364 136.7235 313.7587 15.05158585  1305
STARLINK-4469           
1 53657U 22105K   22287.25001157  .00353325  00000+0  23696-1 0  9995
2 53657  97.6547 166.8209 0002371 140.9547 272.5824 15.05012865  7102
STARLINK-4452           
1 53658U 22105L   22286.91667824  .00000916  00000+0  68642-4 0  9995
2 53658  97.6555 166.5021 0002304 135.4440 321.1709 15.05158567  1307
STARLINK-4463           
1 53659U 22105M   22287.25001157  .00037420  00000+0  26208-2 0  9995
2 53659  97.6542 166.8252 0002772 136.3456 306.8317 15.05118867  7107
STARLINK-4473           
1 53660U 22105N   22287.25001157 -.01237753  00000+0 -96294-1 0  9992
2 53660  97.6556 166.8391 0002645 138.5884   3.9842 15.04179979  7104
STARLINK-4472           
1 53661U 22105P   22287.25001157 -.00226975  00000+0 -16422-1 0  9991
2 53661  97.6548 166.8260 0002413 139.3486 324.6474 15.05213145  7100
STARLINK-4357           
1 53662U 22105Q   22287.25001157 -.01238358  00000+0 -95073-1 0  9990
2 53662  97.6556 166.8383 0002405 128.6812  31.7296 15.04677321  7108
STARLINK-4457           
1 53663U 22105R   22286.91667824  .00000550  00000+0  42903-4 0  9997
2 53663  97.6555 166.4980 0002249 132.9287 332.8464 15.05158809  1301
STARLINK-4471           
1 53664U 22105S   22286.91667824 -.00000898  00000+0 -58742-4 0  9993
2 53664  97.6555 166.5037 0002508 141.0025  15.8948 15.05159665  1301
STARLINK-4334           
1 53665U 22105T   22287.25001157 -.00868288  00000+0 -65487-1 0  9999
2 53665  97.6556 166.8360 0002197 123.8870  20.8831 15.05255668  7106
STARLINK-4449           
1 53666U 22105U   22286.91667824 -.00002150  00000+0 -14669-3 0  9997
2 53666  97.6555 166.5039 0002275 133.5124  41.4689 15.05160200  1306
STARLINK-4406           
1 53667U 22105V   22287.25001157 -.01238012  00000+0 -95934-1 0  9998
2 53667  97.6556 166.8389 0002587 136.1389  15.8233 15.04328659  7104
STARLINK-4458           
1 53668U 22105W   22286.91667824 -.00002150  00000+0 -14672-3 0  9993
2 53668  97.6555 166.5039 0002351 135.8276  40.4379 15.05160220  1303
STARLINK-4464           
1 53669U 22105X   22286.91667824 -.00001200  00000+0 -79959-4 0  9999
2 53669  97.6555 166.5006 0002400 138.0321  21.1375 15.05159777  1306
STARLINK-4459           
1 53670U 22105Y   22286.91667824 -.00001893  00000+0 -12864-3 0  9990
2 53670  97.6555 166.5042 0002305 136.5650  59.1008 15.05160104  1300
STARLINK-4440           
1 53671U 22105Z   22286.91667824 -.00001526  00000+0 -10284-3 0  9998
2 53671  97.6555 166.5039 0002099 129.4512  56.3011 15.05159963  1309
STARLINK-4428           
1 53672U 22105AA  22286.91667824 -.00002394  00000+0 -16386-3 0  9992
2 53672  97.6555 166.5032 0002266 134.1857  76.8439 15.05160355  1302
STARLINK-4456           
1 53673U 22105AB  22287.25001157 -.00844803  00000+0 -39795-1 0  9998
2 53673  97.6557 167.3202 0002480 137.5793  23.2837 15.22328159  7139
STARLINK-4620           
1 53674U 22105AC  22286.91667824 -.00002386  00000+0 -16328-3 0  9991
2 53674  97.6555 166.5049 0002231 133.2461  92.3557 15.05160289  1305
STARLINK-4617           
1 53675U 22105AD  22286.91667824 -.00002304  00000+0 -15749-3 0  9998
2 53675  97.6555 166.5040 0002313 135.7082  69.0708 15.05160320  1309
STARLINK-4621           
1 53676U 22105AE  22286.91667824 -.00002570  00000+0 -17621-3 0  9995
2 53676  97.6555 166.5032 0002087 127.2397 113.1272 15.05160373  1309
STARLINK-4579           
1 53677U 22105AF  22286.91667824 -.00002911  00000+0 -20016-3 0  9997
2 53677  97.6555 166.5053 0002281 133.8740  83.2495 15.05160559  1304
STARLINK-4418           
1 53678U 22105AG  22286.91667824  .00009072  00000+0  64061-3 0  9999
2 53678  97.6555 166.5070 0002323 138.8936 119.7749 15.05153889  1308
STARLINK-4632           
1 53679U 22105AH  22286.91667824 -.00002538  00000+0 -17399-3 0  9994
2 53679  97.6555 166.5027 0002284 134.9140  95.0351 15.05160389  1309
STARLINK-4630           
1 53680U 22105AJ  22287.25001157 -.00001301  00000+0 -87052-4 0  9996
2 53680  97.6556 166.8303 0002390 135.9228 129.0105 15.05159855  7114
STARLINK-4424           
1 53681U 22105AK  22286.91667824  .00000549  00000+0  42863-4 0  9990
2 53681  97.6555 166.5047 0002196 126.9533 125.1537 15.05158416  1302
STARLINK-4438           
1 53682U 22105AL  22287.25001157 -.00000823  00000+0 -53455-4 0  9996
2 53682  97.6556 166.8271 0002405 136.3227 138.8402 15.05159611  7119
STARLINK-4625           
1 53683U 22105AM  22287.25001157 -.00001329  00000+0 -89024-4 0  9990
2 53683  97.6556 166.8340 0002409 136.5075 127.8216 15.05159870  7112
STARLINK-4624           
1 53684U 22105AN  22287.25001157  .00030270  00000+0  21189-2 0  9992
2 53684  97.6543 166.8086 0002269 132.0193 203.5962 15.05191562  7105
STARLINK-4626           
1 53685U 22105AP  22287.25001157 -.00001237  00000+0 -82546-4 0  9992
2 53685  97.6556 166.8268 0002345 134.4489 131.8645 15.05159821  7104
STARLINK-4467           
1 53686U 22105AQ  22287.25001157 -.00000378  00000+0 -22223-4 0  9994
2 53686  97.6556 166.8271 0002343 134.2341 151.4477 15.05159382  7116
STARLINK-4569           
1 53687U 22105AR  22287.25001157 -.00000402  00000+0 -23919-4 0  9996
2 53687  97.6556 166.8308 0002451 137.6329 147.4446 15.05159397  7118
STARLINK-4571           
1 53688U 22105AS  22287.25001157  .00000314  00000+0  26323-4 0  9999
2 53688  97.6557 166.8281 0002424 136.6004 170.4601 15.05159035  7117
STARLINK-4562           
1 53689U 22105AT  22287.25001157  .00000163  00000+0  15771-4 0  9997
2 53689  97.6557 166.8297 0002382 135.3620 165.9935 15.05159109  7119
STARLINK-4570           
1 53690U 22105AU  22287.25001157 -.00007184  00000+0 -50061-3 0  9991
2 53690  97.6557 166.8342 0002194 120.0133 210.6587 15.05162900  7117
STARLINK-4560           
1 53691U 22105AV  22287.25001157  .00000478  00000+0  37835-4 0  9994
2 53691  97.6557 166.8279 0002401 135.8192 178.8106 15.05158954  7113
STARLINK-4572           
1 53692U 22105AW  22287.25001157 -.00126704  00000+0 -90318-2 0  9991
2 53692  97.6557 166.8356 0002720 139.7380 203.6613 15.05239195  7113
STARLINK-4566           
1 53693U 22105AX  22287.25001157 -.00227124  00000+0 -16391-1 0  9998
2 53693  97.6557 166.8348 0002357 131.8348 219.0352 15.05309023  7117
FALCON 9 DEB            
1 53694U 22105AY  22287.19475428  .01282583  12585-2  90549-3 0  9990
2 53694  97.6677 170.0202 0007824 138.1655 222.0231 16.16469396  7014
FALCON 9 DEB            
1 53695U 22105AZ  22287.17637602  .01312690  25730-5  85062-3 0  9999
2 53695  97.6627 170.0318 0006146 135.9393 224.2384 16.17340081  7011
FALCON 9 DEB            
1 53696U 22105BA  22286.71365315  .12981815  29185-5  23220-3 0  9997
2 53696  97.6311 169.6740 0006273 192.9985 167.1157 16.47544701  6959
FALCON 9 DEB            
1 53697U 22105BB  22287.15019109  .07946909  28063-5  56849-3 0  9990
2 53697  97.6191 170.1633 0004331 212.4195 147.6838 16.41078728  7021
